[{"OBJECT_NAME":"STARLINK-2405","OBJECT_ID":"2021-021BM","EPOCH":"2026-03-10T00:00:02.999808","MEAN_MOTION":15.24543976,"ECCENTRICITY":0.00013532,"INCLINATION":53.1335,"RA_OF_ASC_NODE":279.4306,"ARG_OF_PERICENTER":70.8844,"MEAN_ANOMALY":307.4888,"EPHEMERIS_TYPE":0,"CLASSIFICATION_TYPE":"U","NORAD_CAT_ID":47919,"ELEMENT_SET_NO":999,"REV_AT_EPOCH":574,"BSTAR":0.041119409,"MEAN_MOTION_DOT":0.0110971,"MEAN_MOTION_DDOT":0},{"OBJECT_NAME":"OBJECT C","OBJECT_ID":"2026-023C","EPOCH":"2026-03-09T17:14:42.726048","MEAN_MOTION":15.23105823,"ECCENTRICITY":0.00205519,"INCLINATION":96.6388,"RA_OF_ASC_NODE":141.6892,"ARG_OF_PERICENTER":122.5463,"MEAN_ANOMALY":237.7764,"EPHEMERIS_TYPE":0,"CLASSIFICATION_TYPE":"U","NORAD_CAT_ID":67676,"ELEMENT_SET_NO":999,"REV_AT_EPOCH":502,"BSTAR":0.00045389382,"MEAN_MOTION_DOT":0.00010715,"MEAN_MOTION_DDOT":0}]
